[{"OBJECT_NAME":"SENTINEL-3B","OBJECT_ID":"2018-039A","EPOCH":"2026-03-09T22:56:26.429280","MEAN_MOTION":14.26736439,"ECCENTRICITY":9.653e-5,"INCLINATION":98.6227,"RA_OF_ASC_NODE":137.8858,"ARG_OF_PERICENTER":127.5232,"MEAN_ANOMALY":232.6036,"EPHEMERIS_TYPE":0,"CLASSIFICATION_TYPE":"U","NORAD_CAT_ID":43437,"ELEMENT_SET_NO":999,"REV_AT_EPOCH":40997,"BSTAR":7.6183716e-5,"MEAN_MOTION_DOT":1.41e-6,"MEAN_MOTION_DDOT":0},{"OBJECT_NAME":"SL-8 R\/B","OBJECT_ID":"1992-053B","EPOCH":"2026-03-09T23:29:09.087360","MEAN_MOTION":14.34825191,"ECCENTRICITY":0.00366138,"INCLINATION":74.0459,"RA_OF_ASC_NODE":9.2729,"ARG_OF_PERICENTER":276.726,"MEAN_ANOMALY":82.9726,"EPHEMERIS_TYPE":0,"CLASSIFICATION_TYPE":"U","NORAD_CAT_ID":22081,"ELEMENT_SET_NO":999,"REV_AT_EPOCH":75523,"BSTAR":0.00012520677,"MEAN_MOTION_DOT":3.32e-6,"MEAN_MOTION_DDOT":0}]
